CCSDS_OMM_VERS = 2.0
CREATION_DATE  = 
ORIGINATOR     = 

OBJECT_NAME    = ALOS (DAICHI)
OBJECT_ID      = 2006-002A
CENTER_NAME    = EARTH
REF_FRAME      = TEME
TIME_SYSTEM    = UTC
MEAN_ELEMENT_THEORY = SGP/SGP4

EPOCH          = 2026-01-05T14:16:48.612576
MEAN_MOTION    = 14.69578072
ECCENTRICITY   = .0002014
INCLINATION    = 98.1128
RA_OF_ASC_NODE = 321.9191
ARG_OF_PERICENTER = 101.4176
MEAN_ANOMALY   = 258.7256

EPHEMERIS_TYPE = 0
CLASSIFICATION_TYPE = U
NORAD_CAT_ID   = 28931
ELEMENT_SET_NO = 999
REV_AT_EPOCH   = 6421
BSTAR          = .36611479E-3
MEAN_MOTION_DOT = .2125E-4
MEAN_MOTION_DDOT = 0

CCSDS_OMM_VERS = 2.0
CREATION_DATE  = 
ORIGINATOR     = 

OBJECT_NAME    = H-2A R/B
OBJECT_ID      = 2006-002B
CENTER_NAME    = EARTH
REF_FRAME      = TEME
TIME_SYSTEM    = UTC
MEAN_ELEMENT_THEORY = SGP/SGP4

EPOCH          = 2026-01-08T16:03:46.110816
MEAN_MOTION    = 15.15198966
ECCENTRICITY   = .00546304
INCLINATION    = 98.2332
RA_OF_ASC_NODE = 150.6319
ARG_OF_PERICENTER = 85.6547
MEAN_ANOMALY   = 275.0923

EPHEMERIS_TYPE = 0
CLASSIFICATION_TYPE = U
NORAD_CAT_ID   = 28932
ELEMENT_SET_NO = 999
REV_AT_EPOCH   = 8534
BSTAR          = .57780188E-3
MEAN_MOTION_DOT = .11194E-3
MEAN_MOTION_DDOT = 0

CCSDS_OMM_VERS = 2.0
CREATION_DATE  = 
ORIGINATOR     = 

OBJECT_NAME    = RESURS-DK 1
OBJECT_ID      = 2006-021A
CENTER_NAME    = EARTH
REF_FRAME      = TEME
TIME_SYSTEM    = UTC
MEAN_ELEMENT_THEORY = SGP/SGP4

EPOCH          = 2026-01-08T11:41:25.092672
MEAN_MOTION    = 15.12346955
ECCENTRICITY   = .000653
INCLINATION    = 69.9340
RA_OF_ASC_NODE = 32.7034
ARG_OF_PERICENTER = 236.9088
MEAN_ANOMALY   = 123.1452

EPHEMERIS_TYPE = 0
CLASSIFICATION_TYPE = U
NORAD_CAT_ID   = 29228
ELEMENT_SET_NO = 999
REV_AT_EPOCH   = 7842
BSTAR          = .18433727E-3
MEAN_MOTION_DOT = .3097E-4
MEAN_MOTION_DDOT = 0

CCSDS_OMM_VERS = 2.0
CREATION_DATE  = 
ORIGINATOR     = 

OBJECT_NAME    = CZ-4B R/B
OBJECT_ID      = 2006-046C
CENTER_NAME    = EARTH
REF_FRAME      = TEME
TIME_SYSTEM    = UTC
MEAN_ELEMENT_THEORY = SGP/SGP4

EPOCH          = 2026-01-08T15:11:16.698624
MEAN_MOTION    = 15.16198408
ECCENTRICITY   = .00352168
INCLINATION    = 97.5697
RA_OF_ASC_NODE = 53.6982
ARG_OF_PERICENTER = 114.6015
MEAN_ANOMALY   = 245.8893

EPHEMERIS_TYPE = 0
CLASSIFICATION_TYPE = U
NORAD_CAT_ID   = 29507
ELEMENT_SET_NO = 999
REV_AT_EPOCH   = 5094
BSTAR          = .27417538E-3
MEAN_MOTION_DOT = .531E-4
MEAN_MOTION_DDOT = 0

CCSDS_OMM_VERS = 2.0
CREATION_DATE  = 
ORIGINATOR     = 

OBJECT_NAME    = CZ-2C R/B
OBJECT_ID      = 2007-010B
CENTER_NAME    = EARTH
REF_FRAME      = TEME
TIME_SYSTEM    = UTC
MEAN_ELEMENT_THEORY = SGP/SGP4

EPOCH          = 2026-01-08T13:27:52.148736
MEAN_MOTION    = 14.20222908
ECCENTRICITY   = .00600674
INCLINATION    = 98.3971
RA_OF_ASC_NODE = 124.8624
ARG_OF_PERICENTER = 108.8115
MEAN_ANOMALY   = 251.9591

EPHEMERIS_TYPE = 0
CLASSIFICATION_TYPE = U
NORAD_CAT_ID   = 31114
ELEMENT_SET_NO = 999
REV_AT_EPOCH   = 97118
BSTAR          = .10420158E-3
MEAN_MOTION_DOT = .186E-5
MEAN_MOTION_DDOT = 0

CCSDS_OMM_VERS = 2.0
CREATION_DATE  = 
ORIGINATOR     = 

OBJECT_NAME    = COSMO-SKYMED 1
OBJECT_ID      = 2007-023A
CENTER_NAME    = EARTH
REF_FRAME      = TEME
TIME_SYSTEM    = UTC
MEAN_ELEMENT_THEORY = SGP/SGP4

EPOCH          = 2026-01-08T14:40:55.907616
MEAN_MOTION    = 14.96015032
ECCENTRICITY   = .0001617
INCLINATION    = 97.8849
RA_OF_ASC_NODE = 199.1915
ARG_OF_PERICENTER = 82.9329
MEAN_ANOMALY   = 277.2076

EPHEMERIS_TYPE = 0
CLASSIFICATION_TYPE = U
NORAD_CAT_ID   = 31598
ELEMENT_SET_NO = 999
REV_AT_EPOCH   = 592
BSTAR          = .43233466E-3
MEAN_MOTION_DOT = .4793E-4
MEAN_MOTION_DDOT = 0

CCSDS_OMM_VERS = 2.0
CREATION_DATE  = 
ORIGINATOR     = 

OBJECT_NAME    = COSMOS 2428
OBJECT_ID      = 2007-029A
CENTER_NAME    = EARTH
REF_FRAME      = TEME
TIME_SYSTEM    = UTC
MEAN_ELEMENT_THEORY = SGP/SGP4

EPOCH          = 2026-01-08T15:23:39.289344
MEAN_MOTION    = 14.12905244
ECCENTRICITY   = .000525
INCLINATION    = 70.9388
RA_OF_ASC_NODE = 329.3969
ARG_OF_PERICENTER = 346.8734
MEAN_ANOMALY   = 13.2249

EPHEMERIS_TYPE = 0
CLASSIFICATION_TYPE = U
NORAD_CAT_ID   = 31792
ELEMENT_SET_NO = 999
REV_AT_EPOCH   = 95561
BSTAR          = .21263546E-3
MEAN_MOTION_DOT = .348E-5
MEAN_MOTION_DDOT = 0

CCSDS_OMM_VERS = 2.0
CREATION_DATE  = 
ORIGINATOR     = 

OBJECT_NAME    = SL-16 R/B
OBJECT_ID      = 2007-029B
CENTER_NAME    = EARTH
REF_FRAME      = TEME
TIME_SYSTEM    = UTC
MEAN_ELEMENT_THEORY = SGP/SGP4

EPOCH          = 2026-01-08T13:27:08.589312
MEAN_MOTION    = 14.14825837
ECCENTRICITY   = .00021867
INCLINATION    = 70.9773
RA_OF_ASC_NODE = 298.7787
ARG_OF_PERICENTER = 273.3477
MEAN_ANOMALY   = 259.3718

EPHEMERIS_TYPE = 0
CLASSIFICATION_TYPE = U
NORAD_CAT_ID   = 31793
ELEMENT_SET_NO = 999
REV_AT_EPOCH   = 95686
BSTAR          = -.9754974E-5
MEAN_MOTION_DOT = -.67E-6
MEAN_MOTION_DDOT = 0

CCSDS_OMM_VERS = 2.0
CREATION_DATE  = 
ORIGINATOR     = 

OBJECT_NAME    = KORONAS-FOTON
OBJECT_ID      = 2009-003A
CENTER_NAME    = EARTH
REF_FRAME      = TEME
TIME_SYSTEM    = UTC
MEAN_ELEMENT_THEORY = SGP/SGP4

EPOCH          = 2026-01-08T15:06:06.546816
MEAN_MOTION    = 15.41794284
ECCENTRICITY   = .0012011
INCLINATION    = 82.4323
RA_OF_ASC_NODE = 338.2303
ARG_OF_PERICENTER = 24.5994
MEAN_ANOMALY   = 335.5823

EPHEMERIS_TYPE = 0
CLASSIFICATION_TYPE = U
NORAD_CAT_ID   = 33504
ELEMENT_SET_NO = 999
REV_AT_EPOCH   = 93648
BSTAR          = .27741285E-3
MEAN_MOTION_DOT = .1181E-3
MEAN_MOTION_DDOT = 0

CCSDS_OMM_VERS = 2.0
CREATION_DATE  = 
ORIGINATOR     = 

OBJECT_NAME    = CZ-2C R/B
OBJECT_ID      = 2011-030B
CENTER_NAME    = EARTH
REF_FRAME      = TEME
TIME_SYSTEM    = UTC
MEAN_ELEMENT_THEORY = SGP/SGP4

EPOCH          = 2026-01-08T15:23:00.701376
MEAN_MOTION    = 14.80997688
ECCENTRICITY   = .00525379
INCLINATION    = 97.8449
RA_OF_ASC_NODE = 327.1590
ARG_OF_PERICENTER = 184.2069
MEAN_ANOMALY   = 348.8446

EPHEMERIS_TYPE = 0
CLASSIFICATION_TYPE = U
NORAD_CAT_ID   = 37731
ELEMENT_SET_NO = 999
REV_AT_EPOCH   = 78120
BSTAR          = .20241757E-3
MEAN_MOTION_DOT = .1551E-4
MEAN_MOTION_DDOT = 0

CCSDS_OMM_VERS = 2.0
CREATION_DATE  = 
ORIGINATOR     = 

OBJECT_NAME    = H-2A R/B
OBJECT_ID      = 2012-025E
CENTER_NAME    = EARTH
REF_FRAME      = TEME
TIME_SYSTEM    = UTC
MEAN_ELEMENT_THEORY = SGP/SGP4

EPOCH          = 2026-01-08T14:54:18.707040
MEAN_MOTION    = 14.94644673
ECCENTRICITY   = .00456522
INCLINATION    = 98.4634
RA_OF_ASC_NODE = 330.9324
ARG_OF_PERICENTER = 147.7528
MEAN_ANOMALY   = 212.6496

EPHEMERIS_TYPE = 0
CLASSIFICATION_TYPE = U
NORAD_CAT_ID   = 38341
ELEMENT_SET_NO = 999
REV_AT_EPOCH   = 73924
BSTAR          = .32060523E-3
MEAN_MOTION_DOT = .3477E-4
MEAN_MOTION_DDOT = 0

CCSDS_OMM_VERS = 2.0
CREATION_DATE  = 
ORIGINATOR     = 

OBJECT_NAME    = SHIJIAN-16 (SJ-16)
OBJECT_ID      = 2013-057A
CENTER_NAME    = EARTH
REF_FRAME      = TEME
TIME_SYSTEM    = UTC
MEAN_ELEMENT_THEORY = SGP/SGP4

EPOCH          = 2026-01-08T14:59:20.280192
MEAN_MOTION    = 14.92119435
ECCENTRICITY   = .00179051
INCLINATION    = 74.9740
RA_OF_ASC_NODE = 298.7812
ARG_OF_PERICENTER = 257.8395
MEAN_ANOMALY   = 102.0787

EPHEMERIS_TYPE = 0
CLASSIFICATION_TYPE = U
NORAD_CAT_ID   = 39358
ELEMENT_SET_NO = 999
REV_AT_EPOCH   = 66254
BSTAR          = .40905454E-3
MEAN_MOTION_DOT = .4145E-4
MEAN_MOTION_DDOT = 0

